IRIDIUM 26              
1 24903U 97043A   25225.62725970  .00000313  00000+0  98726-4 0  9997
2 24903  86.3912  86.4844 0001938  88.3429 271.7991 14.37180737464997
IRIDIUM 22              
1 24907U 97043E   25225.60463179  .00000297  00000+0  95568-4 0  9991
2 24907  86.3921  90.0854 0002087  89.6677 270.4759 14.35989378465016
DUMMY MASS 1            
1 24925U 97048A   25225.61695041  .00000339  00000+0  34651-4 0  9995
2 24925  86.3335 108.7798 0004817 319.3048  40.7817 14.87025982513664
DUMMY MASS 2            
1 24926U 97048B   25225.38675693  .00000375  00000+0  38932-4 0  9997
2 24926  86.3339 110.5048 0006002 332.6449  27.4459 14.86777963513407
IRIDIUM 29              
1 24944U 97051A   25225.46774078  .00000377  00000+0  12188-3 0  9993
2 24944  86.3967 119.8811 0002368  85.9668 274.1799 14.36507278461490
IRIDIUM 33              
1 24946U 97051C   25225.44279305  .00000284  00000+0  93052-4 0  9993
2 24946  86.3880 119.1565 0005784 246.4649 113.5939 14.34922836460954
IRIDIUM 28              
1 24948U 97051E   25225.61390687  .00000290  00000+0  90470-4 0  9999
2 24948  86.3966 117.3022 0001652  88.3460 271.7927 14.37419180462090
IRIDIUM 36              
1 24967U 97056C   25225.49865125  .00000311  00000+0  97064-4 0  9995
2 24967  86.4022 148.9452 0002137  92.0322 268.1121 14.37646467460454
